{"fetched_at":"2026-03-29T02:12:04Z","count":15717,"tles":[{"name":"STARLINK-31823","line1":"1 59794U 24093N   26087.44047531  .00001030  00000+0  46955-4 0  9999","line2":"2 59794  43.0022 102.9516 0001231 236.2208 123.8527 15.27585370105569","category":"Starlink"}]}